1 39634U 14016A   21028.56182984 -.00000090  00000-0 -93706-5 0  9994
2 39634  98.1818  38.3243 0001337  86.2045 273.9315 14.59198388363394
