<?xml version="1.0" encoding="utf-8"?>
<ndm xmlns:xsi="http://www.w3.org/2001/XMLSchema-instance" xsi:noNamespaceSchemaLocation="http://sanaregistry.org/r/ndmxml/ndmxml-1.0-master.xsd"><omm id="CCSDS_OMM_VERS" version="2.0"><header><COMMENT>GENERATED VIA SPACE-TRACK.ORG API</COMMENT><CREATION_DATE>2021-01-28T20:49:41</CREATION_DATE><ORIGINATOR>18 SPCS</ORIGINATOR></header><body><segment><metadata><OBJECT_NAME>SENTINEL 1A</OBJECT_NAME><OBJECT_ID>2014-016A</OBJECT_ID><CENTER_NAME>EARTH</CENTER_NAME><REF_FRAME>TEME</REF_FRAME><TIME_SYSTEM>UTC</TIME_SYSTEM><MEAN_ELEMENT_THEORY>SGP4</MEAN_ELEMENT_THEORY></metadata><data><meanElements><EPOCH>2021-01-28T13:29:02.098176</EPOCH><MEAN_MOTION>14.59198388</MEAN_MOTION><ECCENTRICITY>0.00013370</ECCENTRICITY><INCLINATION>98.1818</INCLINATION><RA_OF_ASC_NODE>38.3243</RA_OF_ASC_NODE><ARG_OF_PERICENTER>86.2045</ARG_OF_PERICENTER><MEAN_ANOMALY>273.9315</MEAN_ANOMALY></meanElements><tleParameters><EPHEMERIS_TYPE>0</EPHEMERIS_TYPE><CLASSIFICATION_TYPE>U</CLASSIFICATION_TYPE><NORAD_CAT_ID>39634</NORAD_CAT_ID><ELEMENT_SET_NO>999</ELEMENT_SET_NO><REV_AT_EPOCH>36339</REV_AT_EPOCH><BSTAR>-0.00000937060000</BSTAR><MEAN_MOTION_DOT>-0.00000090</MEAN_MOTION_DOT><MEAN_MOTION_DDOT>0.0000000000000</MEAN_MOTION_DDOT></tleParameters><userDefinedParameters><USER_DEFINED parameter="SEMIMAJOR_AXIS">7073.901</USER_DEFINED><USER_DEFINED parameter="PERIOD">98.684</USER_DEFINED><USER_DEFINED parameter="APOAPSIS">696.711</USER_DEFINED><USER_DEFINED parameter="PERIAPSIS">694.820</USER_DEFINED><USER_DEFINED parameter="OBJECT_TYPE">PAYLOAD</USER_DEFINED><USER_DEFINED parameter="RCS_SIZE">LARGE</USER_DEFINED><USER_DEFINED parameter="COUNTRY_CODE">ESA</USER_DEFINED><USER_DEFINED parameter="LAUNCH_DATE">2014-04-03</USER_DEFINED><USER_DEFINED parameter="SITE">FRGUI</USER_DEFINED><USER_DEFINED parameter="DECAY_DATE"/><USER_DEFINED parameter="FILE">2942815</USER_DEFINED><USER_DEFINED parameter="GP_ID">170572610</USER_DEFINED></userDefinedParameters></data></segment></body></omm></ndm>
